{"type": "FeatureCollection", "features": [{"type": "Feature", "properties": {"feature_id": "OBS-001", "parcel_id": "DEMO-001", "kind": "building", "area_m2": 72.2, "outside_ratio": 0.0, "flagged": false, "source": "Synthetic observed footprint (not AI output)", "status": "OBSERVED", "dataset": "DEMO / POC DATA"}, "geometry": {"type": "Polygon", "coordinates": [[[79.28927385801478, 26.832280904415253], [79.28935093918598, 26.832281836639574], [79.2893473253376, 26.832367979401898], [79.28927255814021, 26.8323674051618], [79.28927385801478, 26.832280904415253]]]}}, {"type": "Feature", "properties": {"feature_id": "OBS-002", "parcel_id": "DEMO-002", "kind": "building", "area_m2": 81.3, "outside_ratio": 0.0, "flagged": false, "source": "Synthetic observed footprint (not AI output)", "status": "OBSERVED", "dataset": "DEMO / POC DATA"}, "geometry": {"type": "Polygon", "coordinates": [[[79.2894321057218, 26.832282653226027], [79.28951967165379, 26.832283712152453], [79.28951276555382, 26.832369228058898], [79.28942849193469, 26.83236879599334], [79.2894321057218, 26.832282653226027]]]}}, {"type": "Feature", "properties": {"feature_id": "OBS-003", "parcel_id": "DEMO-003", "kind": "building", "area_m2": 82.2, "outside_ratio": 0.0, "flagged": false, "source": "Synthetic observed footprint (not AI output)", "status": "OBSERVED", "dataset": "DEMO / POC DATA"}, "geometry": {"type": "Polygon", "coordinates": [[[79.28960197203001, 26.832289949067192], [79.28968246552782, 26.83229092237282], [79.28967774323178, 26.83238753517691], [79.28959506599101, 26.832375464980498], [79.28960197203001, 26.832289949067192]]]}}, {"type": "Feature", "properties": {"feature_id": "OBS-004", "parcel_id": "DEMO-004", "kind": "building (shift)", "area_m2": 78.8, "outside_ratio": 0.501, "flagged": true, "source": "Synthetic observed footprint (not AI output)", "status": "OBSERVED", "dataset": "DEMO / POC DATA"}, "geometry": {"type": "Polygon", "coordinates": [[[79.28983324722407, 26.83233787751258], [79.28991248693688, 26.832338835529665], [79.28990541984074, 26.83242616258771], [79.28982852505145, 26.832434490327074], [79.28983324722407, 26.83233787751258]]]}}, {"type": "Feature", "properties": {"feature_id": "OBS-005", "parcel_id": "DEMO-005", "kind": "building", "area_m2": 79.7, "outside_ratio": 0.0, "flagged": false, "source": "Synthetic observed footprint (not AI output)", "status": "OBSERVED", "dataset": "DEMO / POC DATA"}, "geometry": {"type": "Polygon", "coordinates": [[[79.28991934884294, 26.832293539600926], [79.28999578990272, 26.832294463735128], [79.28999309966868, 26.832390607454904], [79.28991228175691, 26.832380866660234], [79.28991934884294, 26.832293539600926]]]}}, {"type": "Feature", "properties": {"feature_id": "OBS-006", "parcel_id": "DEMO-006", "kind": "building", "area_m2": 86.0, "outside_ratio": 0.0, "flagged": false, "source": "Synthetic observed footprint (not AI output)", "status": "OBSERVED", "dataset": "DEMO / POC DATA"}, "geometry": {"type": "Polygon", "coordinates": [[[79.29007728706117, 26.832295448949534], [79.29015933191184, 26.832296440737522], [79.29015793889528, 26.83238918761665], [79.29007459689582, 26.832391592674114], [79.29007728706117, 26.832295448949534]]]}}, {"type": "Feature", "properties": {"feature_id": "OBS-007", "parcel_id": "DEMO-007", "kind": "building", "area_m2": 82.8, "outside_ratio": 0.0, "flagged": false, "source": "Synthetic observed footprint (not AI output)", "status": "OBSERVED", "dataset": "DEMO / POC DATA"}, "geometry": {"type": "Polygon", "coordinates": [[[79.28927378939163, 26.832458715359426], [79.28934855664905, 26.83245928960171], [79.28935465497558, 26.8325543135532], [79.2892723409471, 26.832555101988465], [79.28927378939163, 26.832458715359426]]]}}, {"type": "Feature", "properties": {"feature_id": "OBS-008", "parcel_id": "DEMO-008", "kind": "building", "area_m2": 87.2, "outside_ratio": 0.0, "flagged": false, "source": "Synthetic observed footprint (not AI output)", "status": "OBSERVED", "dataset": "DEMO / POC DATA"}, "geometry": {"type": "Polygon", "coordinates": [[[79.28942804949807, 26.832459065452166], [79.28951232318401, 26.832459497521153], [79.28951837811776, 26.83255228706126], [79.2894341478912, 26.832554089403374], [79.28942804949807, 26.832459065452166]]]}}, {"type": "Feature", "properties": {"feature_id": "OBS-009", "parcel_id": "DEMO-008", "kind": "outbuilding", "area_m2": 6.8, "outside_ratio": 0.0, "flagged": false, "source": "Synthetic observed footprint (not AI output)", "status": "OBSERVED", "dataset": "DEMO / POC DATA"}, "geometry": {"type": "Polygon", "coordinates": [[[79.28941313689486, 26.832435086825136], [79.28943673352144, 26.832435207811766], [79.28943842888498, 26.83246118888325], [79.28941484444086, 26.832461693531666], [79.28941313689486, 26.832435086825136]]]}}, {"type": "Feature", "properties": {"feature_id": "OBS-010", "parcel_id": "DEMO-009", "kind": "building (oversize)", "area_m2": 554.7, "outside_ratio": 0.451, "flagged": true, "source": "Synthetic observed footprint (not AI output)", "status": "OBSERVED", "dataset": "DEMO / POC DATA"}, "geometry": {"type": "Polygon", "coordinates": [[[79.28952295690814, 26.83237838580001], [79.28974618548315, 26.832410975334348], [79.28973761618533, 26.832639191560116], [79.28953930526404, 26.832628917558157], [79.28952295690814, 26.83237838580001]]]}}, {"type": "Feature", "properties": {"feature_id": "OBS-011", "parcel_id": "DEMO-010", "kind": "building", "area_m2": 73.5, "outside_ratio": 0.0, "flagged": false, "source": "Synthetic observed footprint (not AI output)", "status": "OBSERVED", "dataset": "DEMO / POC DATA"}, "geometry": {"type": "Polygon", "coordinates": [[[79.28975366436663, 26.832474440856505], [79.28983055918617, 26.832466113159438], [79.28982742705271, 26.832555573088435], [79.28975049056078, 26.83255896538526], [79.28975366436663, 26.832474440856505]]]}}, {"type": "Feature", "properties": {"feature_id": "OBS-012", "parcel_id": "DEMO-011", "kind": "building (rotate)", "area_m2": 262.9, "outside_ratio": 0.09, "flagged": true, "source": "Synthetic observed footprint (not AI output)", "status": "OBSERVED", "dataset": "DEMO / POC DATA"}, "geometry": {"type": "Polygon", "coordinates": [[[79.2899472331615, 26.83240667133869], [79.29005518708418, 26.832495888998768], [79.28996124706009, 26.832625568150753], [79.28983966117173, 26.83253567666366], [79.2899472331615, 26.83240667133869]]]}}, {"type": "Feature", "properties": {"feature_id": "OBS-013", "parcel_id": "DEMO-012", "kind": "building", "area_m2": 79.1, "outside_ratio": 0.0, "flagged": false, "source": "Synthetic observed footprint (not AI output)", "status": "OBSERVED", "dataset": "DEMO / POC DATA"}, "geometry": {"type": "Polygon", "coordinates": [[[79.29007323890687, 26.832482002567847], [79.29015658097265, 26.832479597514354], [79.29015520689846, 26.83257108234072], [79.29007654995168, 26.832567872158], [79.29007323890687, 26.832482002567847]]]}}, {"type": "Feature", "properties": {"feature_id": "OBS-014", "parcel_id": "DEMO-012", "kind": "outbuilding", "area_m2": 6.2, "outside_ratio": 0.0, "flagged": false, "source": "Synthetic observed footprint (not AI output)", "status": "OBSERVED", "dataset": "DEMO / POC DATA"}, "geometry": {"type": "Polygon", "coordinates": [[[79.29005534666096, 26.83245450073838], [79.29007868243373, 26.832453827331054], [79.29007829767652, 26.832479443081613], [79.29005627374971, 26.83247854422372], [79.29005534666096, 26.83245450073838]]]}}, {"type": "Feature", "properties": {"feature_id": "OBS-015", "parcel_id": "DEMO-013", "kind": "building", "area_m2": 76.1, "outside_ratio": 0.0, "flagged": false, "source": "Synthetic observed footprint (not AI output)", "status": "OBSERVED", "dataset": "DEMO / POC DATA"}, "geometry": {"type": "Polygon", "coordinates": [[[79.28927095843798, 26.832647100497685], [79.28935327253302, 26.832646312066384], [79.28934672326, 26.832737097077622], [79.28926972220873, 26.83272936449832], [79.28927095843798, 26.832647100497685]]]}}, {"type": "Feature", "properties": {"feature_id": "OBS-016", "parcel_id": "DEMO-014", "kind": "building", "area_m2": 79.5, "outside_ratio": 0.0, "flagged": false, "source": "Synthetic observed footprint (not AI output)", "status": "OBSERVED", "dataset": "DEMO / POC DATA"}, "geometry": {"type": "Polygon", "coordinates": [[[79.2894339392711, 26.832645877149094], [79.2895181695657, 26.83264407481035], [79.28950642675923, 26.83273094903928], [79.28942739006227, 26.832736662167125], [79.2894339392711, 26.832645877149094]]]}}, {"type": "Feature", "properties": {"feature_id": "OBS-017", "parcel_id": "DEMO-015", "kind": "building", "area_m2": 80.0, "outside_ratio": 0.0, "flagged": false, "source": "Synthetic observed footprint (not AI output)", "status": "OBSERVED", "dataset": "DEMO / POC DATA"}, "geometry": {"type": "Polygon", "coordinates": [[[79.28959710235534, 26.832645227344585], [79.28967055085282, 26.832649032533286], [79.28967462421552, 26.83274024598267], [79.28958535960858, 26.83273210158291], [79.28959710235534, 26.832645227344585]]]}}, {"type": "Feature", "properties": {"feature_id": "OBS-018", "parcel_id": "DEMO-016", "kind": "building (shift)", "area_m2": 74.6, "outside_ratio": 0.402, "flagged": true, "source": "Synthetic observed footprint (not AI output)", "status": "OBSERVED", "dataset": "DEMO / POC DATA"}, "geometry": {"type": "Polygon", "coordinates": [[[79.2896871958181, 26.832702689523323], [79.28976413240733, 26.83269929726571], [79.28976302343553, 26.832790159709752], [79.28969126919355, 26.83279390297229], [79.2896871958181, 26.832702689523323]]]}}, {"type": "Feature", "properties": {"feature_id": "OBS-019", "parcel_id": "DEMO-017", "kind": "building", "area_m2": 85.0, "outside_ratio": 0.0, "flagged": false, "source": "Synthetic observed footprint (not AI output)", "status": "OBSERVED", "dataset": "DEMO / POC DATA"}, "geometry": {"type": "Polygon", "coordinates": [[[79.28990726971972, 26.832647618193512], [79.28999453081536, 26.832653768650736], [79.28998739382625, 26.832745571168754], [79.2899061608651, 26.832738480644757], [79.28990726971972, 26.832647618193512]]]}}, {"type": "Feature", "properties": {"feature_id": "OBS-020", "parcel_id": "DEMO-018", "kind": "building (shift)", "area_m2": 77.2, "outside_ratio": 0.201, "flagged": true, "source": "Synthetic observed footprint (not AI output)", "status": "OBSERVED", "dataset": "DEMO / POC DATA"}, "geometry": {"type": "Polygon", "coordinates": [[[79.29012574040708, 26.832603744114383], [79.29020439738159, 26.832606954270968], [79.29020319316834, 26.832687131707985], [79.29011860352895, 26.83269554664481], [79.29012574040708, 26.832603744114383]]]}}, {"type": "Feature", "properties": {"feature_id": "OBS-021", "parcel_id": "DEMO-019", "kind": "building", "area_m2": 82.0, "outside_ratio": 0.0, "flagged": false, "source": "Synthetic observed footprint (not AI output)", "status": "OBSERVED", "dataset": "DEMO / POC DATA"}, "geometry": {"type": "Polygon", "coordinates": [[[79.28926938466039, 26.832815919597202], [79.28934638576983, 26.832823652179382], [79.28935215789252, 26.832912777447564], [79.28926794441404, 26.832911758946853], [79.28926938466039, 26.832815919597202]]]}}, {"type": "Feature", "properties": {"feature_id": "OBS-022", "parcel_id": "DEMO-020", "kind": "building", "area_m2": 81.6, "outside_ratio": 0.0, "flagged": false, "source": "Synthetic observed footprint (not AI output)", "status": "OBSERVED", "dataset": "DEMO / POC DATA"}, "geometry": {"type": "Polygon", "coordinates": [[[79.28942540520599, 26.832824674009455], [79.28950444196438, 26.832818960885685], [79.28951211501708, 26.832914778066534], [79.28943117739077, 26.832913799277343], [79.28942540520599, 26.832824674009455]]]}}, {"type": "Feature", "properties": {"feature_id": "OBS-023", "parcel_id": "DEMO-020", "kind": "outbuilding", "area_m2": 6.4, "outside_ratio": 0.0, "flagged": false, "source": "Synthetic observed footprint (not AI output)", "status": "OBSERVED", "dataset": "DEMO / POC DATA"}, "geometry": {"type": "Polygon", "coordinates": [[[79.28940923784509, 26.832796368627918], [79.28943136813253, 26.832794768960028], [79.28943351656905, 26.832821597771133], [79.28941085405275, 26.832821323703104], [79.28940923784509, 26.832796368627918]]]}}, {"type": "Feature", "properties": {"feature_id": "OBS-024", "parcel_id": "DEMO-021", "kind": "building", "area_m2": 86.1, "outside_ratio": 0.0, "flagged": false, "source": "Synthetic observed footprint (not AI output)", "status": "OBSERVED", "dataset": "DEMO / POC DATA"}, "geometry": {"type": "Polygon", "coordinates": [[[79.28958423506752, 26.832819925790645], [79.28967349974286, 26.832828070194275], [79.28967255789502, 26.832916718186112], [79.28959190818767, 26.83291574297033], [79.28958423506752, 26.832819925790645]]]}}, {"type": "Feature", "properties": {"feature_id": "OBS-025", "parcel_id": "DEMO-022", "kind": "building (oversize)", "area_m2": 468.4, "outside_ratio": 0.36, "flagged": true, "source": "Synthetic observed footprint (not AI output)", "status": "OBSERVED", "dataset": "DEMO / POC DATA"}, "geometry": {"type": "Polygon", "coordinates": [[[79.28969938373832, 26.832766573860326], [79.28987876929516, 26.83275721562286], [79.28989140345254, 26.832990543996857], [79.28969702916707, 26.832988193842493], [79.28969938373832, 26.832766573860326]]]}}, {"type": "Feature", "properties": {"feature_id": "OBS-026", "parcel_id": "DEMO-023", "kind": "building", "area_m2": 77.4, "outside_ratio": 0.0, "flagged": false, "source": "Synthetic observed footprint (not AI output)", "status": "OBSERVED", "dataset": "DEMO / POC DATA"}, "geometry": {"type": "Polygon", "coordinates": [[[79.28990207339827, 26.83282745006071], [79.28998330642222, 26.832834540589978], [79.2899819039746, 26.832921685447094], [79.28990712707726, 26.83292078141037], [79.28990207339827, 26.83282745006071]]]}}, {"type": "Feature", "properties": {"feature_id": "OBS-027", "parcel_id": "DEMO-024", "kind": "building", "area_m2": 85.5, "outside_ratio": 0.0, "flagged": false, "source": "Synthetic observed footprint (not AI output)", "status": "OBSERVED", "dataset": "DEMO / POC DATA"}, "geometry": {"type": "Polygon", "coordinates": [[[79.29006617112069, 26.83283387784188], [79.29015076086553, 26.832825462941642], [79.29014931021014, 26.832922044693998], [79.29006476873653, 26.832921022702827], [79.29006617112069, 26.83283387784188]]]}}, {"type": "Feature", "properties": {"feature_id": "OBS-028", "parcel_id": "DEMO-024", "kind": "outbuilding", "area_m2": 6.7, "outside_ratio": 0.0, "flagged": false, "source": "Synthetic observed footprint (not AI output)", "status": "OBSERVED", "dataset": "DEMO / POC DATA"}, "geometry": {"type": "Polygon", "coordinates": [[[79.29004869929197, 26.83280387836303], [79.29007238441541, 26.832801522198764], [79.29007197821444, 26.832828565088555], [79.29004830662177, 26.832828278924097], [79.29004869929197, 26.83280387836303]]]}}], "crs": {"type": "name", "properties": {"name": "urn:ogc:def:crs:EPSG::4326"}}, "name": "DEMO / POC DATA"}