{"type": "FeatureCollection", "features": [{"type": "Feature", "properties": {"parcel_id": "DEMO-001", "kind": "parcel extent", "status": "OBSERVED", "dataset": "DEMO / POC DATA", "source": "Synthetic observed extent (not AI output)"}, "geometry": {"type": "Polygon", "coordinates": [[[79.28923546191508, 26.83223632095586], [79.289389810345, 26.832238187652685], [79.28938257397711, 26.832410681212515], [79.28923285896754, 26.832409531340556], [79.28923546191508, 26.83223632095586]]]}}, {"type": "Feature", "properties": {"parcel_id": "DEMO-002", "kind": "parcel extent", "status": "OBSERVED", "dataset": "DEMO / POC DATA", "source": "Synthetic observed extent (not AI output)"}, "geometry": {"type": "Polygon", "coordinates": [[[79.28938918642228, 26.832239211291533], [79.28956413004319, 26.8322413268647], [79.28955033274559, 26.832412174912758], [79.28938196654656, 26.832411311701815], [79.28938918642228, 26.832239211291533]]]}}, {"type": "Feature", "properties": {"parcel_id": "DEMO-003", "kind": "parcel extent", "status": "OBSERVED", "dataset": "DEMO / POC DATA", "source": "Synthetic observed extent (not AI output)"}, "geometry": {"type": "Polygon", "coordinates": [[[79.2895720447683, 26.832242865340277], [79.2897378613071, 26.83224487033174], [79.28972813346857, 26.832443892716032], [79.28955781827655, 26.832419028115893], [79.2895720447683, 26.832242865340277]]]}}, {"type": "Feature", "properties": {"parcel_id": "DEMO-004", "kind": "parcel extent", "status": "OBSERVED", "dataset": "DEMO / POC DATA", "source": "Synthetic observed extent (not AI output)"}, "geometry": {"type": "Polygon", "coordinates": [[[79.28975066232344, 26.83225540839455], [79.28992498956306, 26.83225751606938], [79.28990944197228, 26.832449635599584], [79.28974027338943, 26.832467956573392], [79.28975066232344, 26.83225540839455]]]}}, {"type": "Feature", "properties": {"parcel_id": "DEMO-005", "kind": "parcel extent", "status": "OBSERVED", "dataset": "DEMO / POC DATA", "source": "Synthetic observed extent (not AI output)"}, "geometry": {"type": "Polygon", "coordinates": [[[79.289883916499, 26.832245395071187], [79.29003623288581, 26.832247236495217], [79.29003087239131, 26.832438812469157], [79.28986983456558, 26.83241940295693], [79.289883916499, 26.832245395071187]]]}}, {"type": "Feature", "properties": {"parcel_id": "DEMO-006", "kind": "parcel extent", "status": "OBSERVED", "dataset": "DEMO / POC DATA", "source": "Synthetic observed extent (not AI output)"}, "geometry": {"type": "Polygon", "coordinates": [[[79.29003772335736, 26.83224626562032], [79.29020127571061, 26.832248242696807], [79.29019849886703, 26.832433129097637], [79.29003236057486, 26.832437923458688], [79.29003772335736, 26.83224626562032]]]}}, {"type": "Feature", "properties": {"parcel_id": "DEMO-007", "kind": "parcel extent", "status": "OBSERVED", "dataset": "DEMO / POC DATA", "source": "Synthetic observed extent (not AI output)"}, "geometry": {"type": "Polygon", "coordinates": [[[79.28922321733293, 26.832413080631557], [79.28937649014875, 26.832414257837637], [79.28938899177167, 26.832609056937848], [79.28922024793194, 26.832610673215655], [79.28922321733293, 26.832413080631557]]]}}, {"type": "Feature", "properties": {"parcel_id": "DEMO-008", "kind": "parcel extent", "status": "OBSERVED", "dataset": "DEMO / POC DATA", "source": "Synthetic observed extent (not AI output)"}, "geometry": {"type": "Polygon", "coordinates": [[[79.28938298090037, 26.83241233090891], [79.28955102094584, 26.83241319244672], [79.28956309443565, 26.8325982130107], [79.28939514090915, 26.832601806846426], [79.28938298090037, 26.83241233090891]]]}}, {"type": "Feature", "properties": {"parcel_id": "DEMO-009", "kind": "parcel extent", "status": "OBSERVED", "dataset": "DEMO / POC DATA", "source": "Synthetic observed extent (not AI output)"}, "geometry": {"type": "Polygon", "coordinates": [[[79.28951036960711, 26.832412544079048], [79.28970548796288, 26.832441029785045], [79.28969799768888, 26.832640507665328], [79.2895246592551, 26.832631527393286], [79.28951036960711, 26.832412544079048]]]}}, {"type": "Feature", "properties": {"parcel_id": "DEMO-010", "kind": "parcel extent", "status": "OBSERVED", "dataset": "DEMO / POC DATA", "source": "Synthetic observed extent (not AI output)"}, "geometry": {"type": "Polygon", "coordinates": [[[79.28971586748315, 26.832436337447316], [79.28987020788838, 26.832419622395207], [79.2898639212451, 26.832599183089936], [79.2897094970771, 26.832605991978344], [79.28971586748315, 26.832436337447316]]]}}, {"type": "Feature", "properties": {"parcel_id": "DEMO-011", "kind": "parcel extent", "status": "OBSERVED", "dataset": "DEMO / POC DATA", "source": "Synthetic observed extent (not AI output)"}, "geometry": {"type": "Polygon", "coordinates": [[[79.28988112217705, 26.83238886477332], [79.29005245617365, 26.832409515241977], [79.29005947555912, 26.832591558773135], [79.28987448213958, 26.83257851982971], [79.28988112217705, 26.83238886477332]]]}}, {"type": "Feature", "properties": {"parcel_id": "DEMO-012", "kind": "parcel extent", "status": "OBSERVED", "dataset": "DEMO / POC DATA", "source": "Synthetic observed extent (not AI output)"}, "geometry": {"type": "Polygon", "coordinates": [[[79.29003210635157, 26.832438620688126], [79.2901994254908, 26.832433792250278], [79.29019666693982, 26.83261745902892], [79.29003875361173, 26.832611014200744], [79.29003210635157, 26.832438620688126]]]}}, {"type": "Feature", "properties": {"parcel_id": "DEMO-013", "kind": "parcel extent", "status": "OBSERVED", "dataset": "DEMO / POC DATA", "source": "Synthetic observed extent (not AI output)"}, "geometry": {"type": "Polygon", "coordinates": [[[79.28923805181164, 26.83259754947235], [79.28939774108622, 26.832596019905765], [79.28938503556195, 26.83277214283455], [79.2892356534811, 26.832757141631028], [79.28923805181164, 26.83259754947235]]]}}, {"type": "Feature", "properties": {"parcel_id": "DEMO-014", "kind": "parcel extent", "status": "OBSERVED", "dataset": "DEMO / POC DATA", "source": "Synthetic observed extent (not AI output)"}, "geometry": {"type": "Polygon", "coordinates": [[[79.28939412311742, 26.832602298744675], [79.2895623001005, 26.8325987001286], [79.2895388540754, 26.832772156155155], [79.28938104667729, 26.832783563168263], [79.28939412311742, 26.832602298744675]]]}}, {"type": "Feature", "properties": {"parcel_id": "DEMO-015", "kind": "parcel extent", "status": "OBSERVED", "dataset": "DEMO / POC DATA", "source": "Synthetic observed extent (not AI output)"}, "geometry": {"type": "Polygon", "coordinates": [[[79.28956281559744, 26.832597088269235], [79.28970948746574, 26.832604686981252], [79.28971762177484, 26.832786834376208], [79.28953936602774, 26.83277057052856], [79.28956281559744, 26.832597088269235]]]}}, {"type": "Feature", "properties": {"parcel_id": "DEMO-016", "kind": "parcel extent", "status": "OBSERVED", "dataset": "DEMO / POC DATA", "source": "Synthetic observed extent (not AI output)"}, "geometry": {"type": "Polygon", "coordinates": [[[79.28969185383383, 26.832604653187065], [79.28982264592128, 26.832598886314333], [79.28982076075472, 26.832753352475198], [79.2896987785817, 26.83275971605159], [79.28969185383383, 26.832604653187065]]]}}, {"type": "Feature", "properties": {"parcel_id": "DEMO-017", "kind": "parcel extent", "status": "OBSERVED", "dataset": "DEMO / POC DATA", "source": "Synthetic observed extent (not AI output)"}, "geometry": {"type": "Polygon", "coordinates": [[[79.28986504680388, 26.832597860598682], [79.29003968285238, 26.832610169538068], [79.29002539962246, 26.83279389443902], [79.28986282757906, 26.83277970412762], [79.28986504680388, 26.832597860598682]]]}}, {"type": "Feature", "properties": {"parcel_id": "DEMO-018", "kind": "parcel extent", "status": "OBSERVED", "dataset": "DEMO / POC DATA", "source": "Synthetic observed extent (not AI output)"}, "geometry": {"type": "Polygon", "coordinates": [[[79.29005400159537, 26.83262714352579], [79.29023019325436, 26.832634334306942], [79.29022749584716, 26.832813931766257], [79.29003801483138, 26.83283278117604], [79.29005400159537, 26.83262714352579]]]}}, {"type": "Feature", "properties": {"parcel_id": "DEMO-019", "kind": "parcel extent", "status": "OBSERVED", "dataset": "DEMO / POC DATA", "source": "Synthetic observed extent (not AI output)"}, "geometry": {"type": "Polygon", "coordinates": [[[79.28922830601859, 26.832767181337058], [79.28938236699864, 26.832782652408387], [79.28939391571454, 26.832960971028218], [79.28922542435537, 26.832958933244964], [79.28922830601859, 26.832767181337058]]]}}, {"type": "Feature", "properties": {"parcel_id": "DEMO-020", "kind": "parcel extent", "status": "OBSERVED", "dataset": "DEMO / POC DATA", "source": "Synthetic observed extent (not AI output)"}, "geometry": {"type": "Polygon", "coordinates": [[[79.28938634285817, 26.83278685522866], [79.28954915852165, 26.8327750861876], [79.2895649650954, 26.832972469578554], [79.28939823350063, 26.832970453280588], [79.28938634285817, 26.83278685522866]]]}}, {"type": "Feature", "properties": {"parcel_id": "DEMO-021", "kind": "parcel extent", "status": "OBSERVED", "dataset": "DEMO / POC DATA", "source": "Synthetic observed extent (not AI output)"}, "geometry": {"type": "Polygon", "coordinates": [[[79.28953924022944, 26.832770790618085], [79.28971734954982, 26.832787041106155], [79.28971547035229, 26.832963920034814], [79.28955455030083, 26.83296197419135], [79.28953924022944, 26.832770790618085]]]}}, {"type": "Feature", "properties": {"parcel_id": "DEMO-022", "kind": "parcel extent", "status": "OBSERVED", "dataset": "DEMO / POC DATA", "source": "Synthetic observed extent (not AI output)"}, "geometry": {"type": "Polygon", "coordinates": [[[79.28968529250638, 26.832751339663364], [79.28985032719719, 26.832742730108762], [79.28986195056744, 26.8329573922132], [79.28968312627875, 26.832955230046245], [79.28968529250638, 26.832751339663364]]]}}, {"type": "Feature", "properties": {"parcel_id": "DEMO-023", "kind": "parcel extent", "status": "OBSERVED", "dataset": "DEMO / POC DATA", "source": "Synthetic observed extent (not AI output)"}, "geometry": {"type": "Polygon", "coordinates": [[[79.28986266820034, 26.832780320335843], [79.29002489262842, 26.832794480305544], [79.2900220919657, 26.83296851088557], [79.28987276046993, 26.832966705500606], [79.28986266820034, 26.832780320335843]]]}}, {"type": "Feature", "properties": {"parcel_id": "DEMO-024", "kind": "parcel extent", "status": "OBSERVED", "dataset": "DEMO / POC DATA", "source": "Synthetic observed extent (not AI output)"}, "geometry": {"type": "Polygon", "coordinates": [[[79.29002491880426, 26.832794540054913], [79.29019382722636, 26.832777737209234], [79.29019093063475, 26.832970591296554], [79.29002211846425, 26.83296855058441], [79.29002491880426, 26.832794540054913]]]}}], "crs": {"type": "name", "properties": {"name": "urn:ogc:def:crs:EPSG::4326"}}, "name": "DEMO / POC DATA"}