{"type": "FeatureCollection", "features": [{"type": "Feature", "properties": {"parcel_id": "DEMO-001", "status": "RECORDED", "source": "Demo cadastral dataset (synthetic)", "geometry_type": "Polygon", "area_m2": 288.8, "dataset": "DEMO / POC DATA"}, "geometry": {"type": "Polygon", "coordinates": [[[79.2892359673803, 26.83223718791453], [79.2893901296642, 26.832239052359693], [79.2893829020239, 26.832411337888935], [79.28923336757266, 26.832410189404143], [79.2892359673803, 26.83223718791453]]]}}, {"type": "Feature", "properties": {"parcel_id": "DEMO-002", "status": "RECORDED", "source": "Demo cadastral dataset (synthetic)", "geometry_type": "Polygon", "area_m2": 325.0, "dataset": "DEMO / POC DATA"}, "geometry": {"type": "Polygon", "coordinates": [[[79.2893901296642, 26.832239052359693], [79.28956526146209, 26.83224117020717], [79.28955144932522, 26.832412202027164], [79.2893829020239, 26.832411337888935], [79.2893901296642, 26.832239052359693]]]}}, {"type": "Feature", "properties": {"parcel_id": "DEMO-003", "status": "RECORDED", "source": "Demo cadastral dataset (synthetic)", "geometry_type": "Polygon", "area_m2": 329.0, "dataset": "DEMO / POC DATA"}, "geometry": {"type": "Polygon", "coordinates": [[[79.28956526146209, 26.83224117020717], [79.28972624838974, 26.832243116811163], [79.28971680386775, 26.832436342425435], [79.28955144932522, 26.832412202027164], [79.28956526146209, 26.83224117020717]]]}}, {"type": "Feature", "properties": {"parcel_id": "DEMO-004", "status": "RECORDED", "source": "Demo cadastral dataset (synthetic)", "geometry_type": "Polygon", "area_m2": 315.3, "dataset": "DEMO / POC DATA"}, "geometry": {"type": "Polygon", "coordinates": [[[79.28972624838974, 26.832243116811163], [79.28988472767857, 26.832245032914596], [79.2898705934492, 26.832419687026768], [79.28971680386775, 26.832436342425435], [79.28972624838974, 26.832243116811163]]]}}, {"type": "Feature", "properties": {"parcel_id": "DEMO-005", "status": "RECORDED", "source": "Demo cadastral dataset (synthetic)", "geometry_type": "Polygon", "area_m2": 318.9, "dataset": "DEMO / POC DATA"}, "geometry": {"type": "Polygon", "coordinates": [[[79.28988472767857, 26.832245032914596], [79.2900376097339, 26.83224688117606], [79.29003222933405, 26.832439168620382], [79.2898705934492, 26.832419687026768], [79.28988472767857, 26.832245032914596]]]}}, {"type": "Feature", "properties": {"parcel_id": "DEMO-006", "status": "RECORDED", "source": "Demo cadastral dataset (synthetic)", "geometry_type": "Polygon", "area_m2": 344.0, "dataset": "DEMO / POC DATA"}, "geometry": {"type": "Polygon", "coordinates": [[[79.2900376097339, 26.83224688117606], [79.29020169936608, 26.832248864747207], [79.29019891340099, 26.832434358509527], [79.29003222933405, 26.832439168620382], [79.2900376097339, 26.83224688117606]]]}}, {"type": "Feature", "properties": {"parcel_id": "DEMO-007", "status": "RECORDED", "source": "Demo cadastral dataset (synthetic)", "geometry_type": "Polygon", "area_m2": 331.1, "dataset": "DEMO / POC DATA"}, "geometry": {"type": "Polygon", "coordinates": [[[79.28923336757266, 26.832410189404143], [79.2893829020239, 26.832411337888935], [79.28939509873962, 26.832601385791644], [79.28923047061397, 26.83260296265809], [79.28923336757266, 26.832410189404143]]]}}, {"type": "Feature", "properties": {"parcel_id": "DEMO-008", "status": "RECORDED", "source": "Demo cadastral dataset (synthetic)", "geometry_type": "Polygon", "area_m2": 348.7, "dataset": "DEMO / POC DATA"}, "geometry": {"type": "Polygon", "coordinates": [[[79.2893829020239, 26.832411337888935], [79.28955144932522, 26.832412202027164], [79.28956355926164, 26.832597781107044], [79.28939509873962, 26.832601385791644], [79.2893829020239, 26.832411337888935]]]}}, {"type": "Feature", "properties": {"parcel_id": "DEMO-009", "status": "RECORDED", "source": "Demo cadastral dataset (synthetic)", "geometry_type": "Polygon", "area_m2": 304.4, "dataset": "DEMO / POC DATA"}, "geometry": {"type": "Polygon", "coordinates": [[[79.28955144932522, 26.832412202027164], [79.28971680386775, 26.832436342425435], [79.28971045619839, 26.832605391478403], [79.28956355926164, 26.832597781107044], [79.28955144932522, 26.832412202027164]]]}}, {"type": "Feature", "properties": {"parcel_id": "DEMO-010", "status": "RECORDED", "source": "Demo cadastral dataset (synthetic)", "geometry_type": "Polygon", "area_m2": 293.9, "dataset": "DEMO / POC DATA"}, "geometry": {"type": "Polygon", "coordinates": [[[79.28971680386775, 26.832436342425435], [79.2898705934492, 26.832419687026768], [79.28986432924292, 26.832598606889377], [79.28971045619839, 26.832605391478403], [79.28971680386775, 26.832436342425435]]]}}, {"type": "Feature", "properties": {"parcel_id": "DEMO-011", "status": "RECORDED", "source": "Demo cadastral dataset (synthetic)", "geometry_type": "Polygon", "area_m2": 324.5, "dataset": "DEMO / POC DATA"}, "geometry": {"type": "Polygon", "coordinates": [[[79.2898705934492, 26.832419687026768], [79.29003222933405, 26.832439168620382], [79.29003885136414, 26.832610907799715], [79.28986432924292, 26.832598606889377], [79.2898705934492, 26.832419687026768]]]}}, {"type": "Feature", "properties": {"parcel_id": "DEMO-012", "status": "RECORDED", "source": "Demo cadastral dataset (synthetic)", "geometry_type": "Polygon", "area_m2": 316.4, "dataset": "DEMO / POC DATA"}, "geometry": {"type": "Polygon", "coordinates": [[[79.29003222933405, 26.832439168620382], [79.29019891340099, 26.832434358509527], [79.29019616531946, 26.83261732816625], [79.29003885136414, 26.832610907799715], [79.29003222933405, 26.832439168620382]]]}}, {"type": "Feature", "properties": {"parcel_id": "DEMO-013", "status": "RECORDED", "source": "Demo cadastral dataset (synthetic)", "geometry_type": "Polygon", "area_m2": 304.2, "dataset": "DEMO / POC DATA"}, "geometry": {"type": "Polygon", "coordinates": [[[79.28923047061397, 26.83260296265809], [79.28939509873962, 26.832601385791644], [79.28938200025478, 26.832782955820594], [79.2892279980964, 26.83276749065589], [79.28923047061397, 26.83260296265809]]]}}, {"type": "Feature", "properties": {"parcel_id": "DEMO-014", "status": "RECORDED", "source": "Demo cadastral dataset (synthetic)", "geometry_type": "Polygon", "area_m2": 317.9, "dataset": "DEMO / POC DATA"}, "geometry": {"type": "Polygon", "coordinates": [[[79.28939509873962, 26.832601385791644], [79.28956355926164, 26.832597781107044], [79.28954007370952, 26.83277152957442], [79.28938200025478, 26.832782955820594], [79.28939509873962, 26.832601385791644]]]}}, {"type": "Feature", "properties": {"parcel_id": "DEMO-015", "status": "RECORDED", "source": "Demo cadastral dataset (synthetic)", "geometry_type": "Polygon", "area_m2": 320.1, "dataset": "DEMO / POC DATA"}, "geometry": {"type": "Polygon", "coordinates": [[[79.28956355926164, 26.832597781107044], [79.28971045619839, 26.832605391478403], [79.28971860299113, 26.83278781837789], [79.28954007370952, 26.83277152957442], [79.28956355926164, 26.832597781107044]]]}}, {"type": "Feature", "properties": {"parcel_id": "DEMO-016", "status": "RECORDED", "source": "Demo cadastral dataset (synthetic)", "geometry_type": "Polygon", "area_m2": 298.4, "dataset": "DEMO / POC DATA"}, "geometry": {"type": "Polygon", "coordinates": [[[79.28971045619839, 26.832605391478403], [79.28986432924292, 26.832598606889377], [79.28986211146464, 26.832780331787973], [79.28971860299113, 26.83278781837789], [79.28971045619839, 26.832605391478403]]]}}, {"type": "Feature", "properties": {"parcel_id": "DEMO-017", "status": "RECORDED", "source": "Demo cadastral dataset (synthetic)", "geometry_type": "Polygon", "area_m2": 340.2, "dataset": "DEMO / POC DATA"}, "geometry": {"type": "Polygon", "coordinates": [[[79.28986432924292, 26.832598606889377], [79.29003885136414, 26.832610907799715], [79.29002457745077, 26.832794512842884], [79.28986211146464, 26.832780331787973], [79.28986432924292, 26.832598606889377]]]}}, {"type": "Feature", "properties": {"parcel_id": "DEMO-018", "status": "RECORDED", "source": "Demo cadastral dataset (synthetic)", "geometry_type": "Polygon", "area_m2": 308.7, "dataset": "DEMO / POC DATA"}, "geometry": {"type": "Polygon", "coordinates": [[[79.29003885136414, 26.832610907799715], [79.29019616531946, 26.83261732816625], [79.29019375687525, 26.832777683038397], [79.29002457745077, 26.832794512842884], [79.29003885136414, 26.832610907799715]]]}}, {"type": "Feature", "properties": {"parcel_id": "DEMO-019", "status": "RECORDED", "source": "Demo cadastral dataset (synthetic)", "geometry_type": "Polygon", "area_m2": 328.0, "dataset": "DEMO / POC DATA"}, "geometry": {"type": "Polygon", "coordinates": [[[79.2892279980964, 26.83276749065589], [79.28938200025478, 26.832782955820594], [79.2893935445607, 26.832961206356607], [79.28922511753288, 26.832959169350982], [79.2892279980964, 26.83276749065589]]]}}, {"type": "Feature", "properties": {"parcel_id": "DEMO-020", "status": "RECORDED", "source": "Demo cadastral dataset (synthetic)", "geometry_type": "Polygon", "area_m2": 326.5, "dataset": "DEMO / POC DATA"}, "geometry": {"type": "Polygon", "coordinates": [[[79.28938200025478, 26.832782955820594], [79.28954007370952, 26.83277152957442], [79.28955541988164, 26.83296316393496], [79.2893935445607, 26.832961206356607], [79.28938200025478, 26.832782955820594]]]}}, {"type": "Feature", "properties": {"parcel_id": "DEMO-021", "status": "RECORDED", "source": "Demo cadastral dataset (synthetic)", "geometry_type": "Polygon", "area_m2": 344.5, "dataset": "DEMO / POC DATA"}, "geometry": {"type": "Polygon", "coordinates": [[[79.28954007370952, 26.83277152957442], [79.28971860299113, 26.83278781837789], [79.28971671936452, 26.832965114365354], [79.28955541988164, 26.83296316393496], [79.28954007370952, 26.83277152957442]]]}}, {"type": "Feature", "properties": {"parcel_id": "DEMO-022", "status": "RECORDED", "source": "Demo cadastral dataset (synthetic)", "geometry_type": "Polygon", "area_m2": 299.7, "dataset": "DEMO / POC DATA"}, "geometry": {"type": "Polygon", "coordinates": [[[79.28971860299113, 26.83278781837789], [79.28986211146464, 26.832780331787973], [79.28987221876109, 26.83296699448706], [79.28971671936452, 26.832965114365354], [79.28971860299113, 26.83278781837789]]]}}, {"type": "Feature", "properties": {"parcel_id": "DEMO-023", "status": "RECORDED", "source": "Demo cadastral dataset (synthetic)", "geometry_type": "Polygon", "area_m2": 309.8, "dataset": "DEMO / POC DATA"}, "geometry": {"type": "Polygon", "coordinates": [[[79.28986211146464, 26.832780331787973], [79.29002457745077, 26.832794512842884], [79.29002177261725, 26.832968802560774], [79.28987221876109, 26.83296699448706], [79.28986211146464, 26.832780331787973]]]}}, {"type": "Feature", "properties": {"parcel_id": "DEMO-024", "status": "RECORDED", "source": "Demo cadastral dataset (synthetic)", "geometry_type": "Polygon", "area_m2": 342.0, "dataset": "DEMO / POC DATA"}, "geometry": {"type": "Polygon", "coordinates": [[[79.29002457745077, 26.832794512842884], [79.29019375687525, 26.832777683038397], [79.29019085563613, 26.83297084654738], [79.29002177261725, 26.832968802560774], [79.29002457745077, 26.832794512842884]]]}}], "crs": {"type": "name", "properties": {"name": "urn:ogc:def:crs:EPSG::4326"}}, "name": "DEMO / POC DATA"}